[{"OBJECT_NAME":"SAUDISAT 5B","OBJECT_ID":"2018-102C","EPOCH":"2026-03-09T22:59:17.457216","MEAN_MOTION":15.27248504,"ECCENTRICITY":0.00120577,"INCLINATION":97.3281,"RA_OF_ASC_NODE":135.3629,"ARG_OF_PERICENTER":124.0958,"MEAN_ANOMALY":236.1427,"EPHEMERIS_TYPE":0,"CLASSIFICATION_TYPE":"U","NORAD_CAT_ID":43833,"ELEMENT_SET_NO":999,"REV_AT_EPOCH":40064,"BSTAR":0.00024926623,"MEAN_MOTION_DOT":6.596e-5,"MEAN_MOTION_DDOT":0},{"OBJECT_NAME":"STARLINK-35618","OBJECT_ID":"2025-259B","EPOCH":"2026-03-09T21:52:18.590592","MEAN_MOTION":15.2759128,"ECCENTRICITY":0.0001807,"INCLINATION":43.0012,"RA_OF_ASC_NODE":273.2348,"ARG_OF_PERICENTER":265.3083,"MEAN_ANOMALY":94.7563,"EPHEMERIS_TYPE":0,"CLASSIFICATION_TYPE":"U","NORAD_CAT_ID":66423,"ELEMENT_SET_NO":999,"REV_AT_EPOCH":1952,"BSTAR":0.0008495005,"MEAN_MOTION_DOT":0.00023196,"MEAN_MOTION_DDOT":0}]
